# From MPC105239
C/2017 E4 (Lovejoy),h,04/23.5126/2017,88.1366,223.1328,87.0804,1.001503,0.491845,2000,17.0,4.0
# From MPC105239
C/2017 E5 (Lemmon),e,122.6594,206.2723,306.8690,384.5566,0.0001307,0.99535167,0.0000,06/10.5500/2016,2000,g 13.0,4.0
# From MPC111769
C/2017 F1 (Lemmon),h,11/30.6745/2017,146.4726,158.7765,64.7950,1.004385,4.497932,2000,10.5,4.0
# From MPC114598
C/2017 F2 (PANSTARRS),h,11/27.8329/2017,42.5085,38.6694,135.0457,1.004776,6.931233,2000,7.5,4.0
# From MPC104794
P/2017 G1 (PANSTARRS),e,4.7749,249.6286,224.5855,7.294648,0.0500262,0.65348278,66.7345,12/24.0/2019,2000,g 13.5,4.0
# From MPC108595
P/2017 G2 (PANSTARRS),e,47.9540,79.8001,105.6251,8.083227,0.0428871,0.64878898,39.6512,12/24.0/2019,2000,g 13.0,4.0
# From MPC109144
C/2017 G3 (PANSTARRS),e,159.0588,279.4802,73.1505,304.3632,0.0001856,0.99148504,0.0000,04/15.3595/2017,2000,g 14.0,4.0
# From MPC115882
C/2017 K1 (PANSTARRS),h,03/16.7314/2018,154.0080,225.6467,4.3483,1.001091,7.288356,2000,7.0,4.0
# From MPC118840
C/2017 K2 (PANSTARRS),h,12/20.1331/2022,87.5417,88.2697,236.1395,1.000394,1.800983,2000,1.5,4.0
# From MPC106346
P/2017 K3 (Gasparovic),e,4.2754,354.3053,253.4063,5.579152,0.0747914,0.58098107,70.0242,12/24.0/2019,2000,g 14.5,4.0
# From MPC114598
C/2017 K4 (ATLAS),e,16.6795,298.8734,15.1815,28.38074,0.0065188,0.90666032,4.6592,12/24.0/2019,2000,g 10.0,4.0
# From MPC118093
C/2017 K5 (PANSTARRS),h,03/23.5798/2020,82.2635,102.3736,171.7968,1.005798,7.678820,2000,5.0,4.0
# From MPC114599
C/2017 K6 (Jacques),e,57.2555,85.0549,303.7846,1064,0.0000284,0.99811979,0.0000,01/03.1694/2018,2000,g 11.0,4.0
# From MPC110083
C/2017 M3 (PANSTARRS),e,77.5235,7.0026,110.3636,168.3529,0.0004512,0.97232926,0.0000,04/28.2599/2017,2000,g 10.5,4.0
# From MPC118093
C/2017 M4 (ATLAS),h,01/17.8783/2019,105.6439,65.8636,167.5586,1.001241,3.251356,2000,6.0,4.0
# From MPC118841
C/2017 M5 (TOTAS),h,06/03.6196/2018,15.8830,216.2717,92.7103,1.004885,5.990934,2000,6.5,4.0
# From MPC114599
C/2017 O1 (ASASSN),e,39.8670,25.7874,20.8670,362.6428,0.0001427,0.99587185,0.0000,10/14.7110/2017,2000,g 11.0,4.0
# From MPC114599
P/2017 P1 (PANSTARRS),e,7.6998,221.4006,122.1600,7.885182,0.0445130,0.31010711,24.6812,12/24.0/2019,2000,g 10.0,4.0
# From MPC114599
C/2017 P2 (PANSTARRS),e,50.0647,165.5196,132.2952,1805,0.0000129,0.99863545,0.0000,12/06.6705/2017,2000,g 10.0,4.0
# From MPC114599
P/2017 R1 (PANSTARRS),e,2.5734,143.6266,178.4956,4.134865,0.1172228,0.19548050,115.9198,12/24.0/2019,2000,g 13.5,4.0
# From MPC108595
C/2017 S2 (PANSTARRS),e,12.6814,62.4210,305.9344,20.49366,0.0106237,0.82373180,8.9944,12/24.0/2019,2000,g 13.0,4.0
# From MPC114599
C/2017 S3 (PANSTARRS),h,08/15.9574/2018,99.0761,171.0914,255.8382,1.000048,0.208453,2000,11.0,4.0
# From MPC114599
P/2017 S5 (ATLAS),e,11.8503,252.3888,99.8353,3.169433,0.1746754,0.31364840,153.5217,12/24.0/2019,2000,g 14.0,4.0
# From MPC109591
C/2017 S6 (Catalina),h,02/26.7718/2018,152.8679,131.0518,134.7967,1.000817,1.541638,2000,12.5,4.0
# From MPC114599
C/2017 S7 (Lemmon),h,05/26.3317/2017,124.2337,262.7942,187.6501,1.001598,7.610562,2000,7.0,4.0
# From MPC114599
P/2017 S8 (PANSTARRS),e,29.8317,191.7599,254.6809,2.777785,0.2128905,0.39293515,147.8700,12/24.0/2019,2000,g 16.0,4.0
# From MPC107050
P/2017 S9 (PANSTARRS),e,14.1430,146.2155,237.7511,3.154437,0.1759225,0.30480856,155.4710,12/24.0/2019,2000,g 17.0,4.0
# From MPC114600
C/2017 T1 (Heinze),h,02/21.5498/2018,96.8372,102.3179,96.8989,1.000039,0.580905,2000,14.5,4.0
# From MPC118841
C/2017 T2 (PANSTARRS),e,57.2313,64.3787,92.9938,5013,0.0000028,0.99967783,0.0000,05/04.9496/2020,2000,g  5.0,4.0
# From MPC114600
C/2017 T3 (ATLAS),e,88.0299,230.0671,246.8377,1609,0.0000153,0.99948762,0.0000,07/19.1197/2018,2000,g 10.0,4.0
# From MPC115882
P/2017 TW13 (Lemmon),e,44.8451,322.2816,120.0719,7.152169,0.0515285,0.70942407,28.3980,12/24.0/2019,2000,g 15.0,2.0
# From MPC114600
C/2017 U2 (Fuls),e,95.3973,149.7139,147.7560,5517,0.0000024,0.99878511,0.0000,08/28.2861/2017,2000,g  9.0,4.0
# From MPC114600
P/2017 U3 (PANSTARRS),e,15.9109,165.1129,297.2317,4.932994,0.0899577,0.09906168,22.3401,12/24.0/2019,2000,g 11.0,4.0
# From MPC114600
C/2017 U4 (PANSTARRS),h,09/24.5011/2018,158.2239,245.9508,159.0996,1.003686,7.723301,2000,7.0,4.0
# From MPC114600
C/2017 U5 (PANSTARRS),e,18.9642,163.0894,262.0880,16.88470,0.0142057,0.74388041,10.4477,12/24.0/2019,2000,g 12.0,4.0
# From MPC118841
A/2017 U7,h,09/11.6501/2019,142.6353,276.2324,326.0632,1.001420,6.417392,2000,8.3,2.0
# From MPC114600
C/2017 W2 (Leonard),e,98.1979,312.8301,169.1276,13.69248,0.0194528,0.71107089,15.2169,12/24.0/2019,2000,g 11.0,4.0
# From MPC114601
P/2017 W3 (Gibbs),e,18.2113,210.5398,327.2817,7.835062,0.0449408,0.50883594,29.7949,12/24.0/2019,2000,g 10.5,4.0
# From MPC115883
C/2017 X1 (PANSTARRS),e,31.3080,251.1283,283.2447,31.48930,0.0055778,0.85182974,3.1044,12/24.0/2019,2000,g 10.0,4.0
# From MPC117069
C/2017 Y1 (PANSTARRS),e,55.2613,307.5224,134.3860,2126,0.0000101,0.99825193,0.0000,08/31.2069/2017,2000,g 11.5,4.0
# From MPC118841
C/2017 Y2 (PANSTARRS),h,11/04.4556/2020,128.4307,65.9707,147.8289,1.000210,4.632545,2000,15.0,4.0
# From MPC111770
P/2017 Y3 (Leonard),e,27.5741,153.8648,67.5616,9.853085,0.0318673,0.87042898,21.6976,12/24.0/2019,2000,g 16.5,4.0
# From MPC114601
C/2018 A1 (PANSTARRS),e,53.5840,336.6299,96.3384,25.14530,0.0078166,0.90383181,6.2119,12/24.0/2019,2000,g 12.5,4.0
# From MPC118841
C/2018 A3 (ATLAS),e,139.5573,194.2898,86.4206,507.4861,0.0000862,0.99354382,0.0000,01/12.8107/2019,2000,g  8.5,4.0
# From MPC114601
C/2018 A4 (PANSTARRS),e,3.1482,97.6349,356.1019,12.23223,0.0230380,0.80361412,13.4623,12/24.0/2019,2000,g 14.0,4.0
# From MPC109147
P/2018 A5 (PANSTARRS),e,23.5778,87.8311,359.6415,5.640147,0.0735815,0.52232908,60.4514,12/24.0/2019,2000,g 15.0,4.0
# From MPC118841
C/2018 A6 (Gibbs),e,76.9550,340.3861,264.5369,15.35263,0.0163844,0.80343119,2.6657,12/24.0/2019,2000,g  9.0,4.0
# From MPC118841
C/2018 B1 (Lemmon),h,03/30.0300/2018,162.4214,133.1864,68.3239,1.002129,5.115568,2000,9.0,4.0
# From MPC114601
P/2018 C1 (Lemmon-Read),e,5.1411,270.3846,235.1434,5.632062,0.0737400,0.53611910,48.9914,12/24.0/2019,2000,g 13.5,4.0
# From MPC114601
C/2018 C2 (Lemmon),h,06/02.0647/2018,34.4583,91.1390,134.1105,1.001131,1.956526,2000,13.0,4.0
# From MPC118841
C/2018 DO4 (Lemmon),e,160.4743,251.1324,175.9666,25.82769,0.0075089,0.90684703,0.9582,12/24.0/2019,2000,g 11.0,4.0
# From MPC114602
C/2018 E1 (ATLAS),e,72.4988,146.8464,299.4526,54.12474,0.0024752,0.95002559,1.5241,12/24.0/2019,2000,g 10.5,4.0
# From MPC114602
C/2018 E2 (Barros),e,97.7367,67.2011,277.4846,3262,0.0000053,0.99879768,0.0000,12/23.8765/2017,2000,g 10.5,4.0
# From MPC114602
C/2018 EN4 (NEOWISE),e,81.5772,136.1577,35.0124,18.34274,0.0125461,0.92103248,7.0804,12/24.0/2019,2000,g 15.0,4.0
# From MPC114602
C/2018 EF9 (Lemmon),e,84.6722,172.5778,72.6214,609.6299,0.0000655,0.99744614,0.0000,05/23.0820/2018,2000,g 18.0,2.0
# From MPC115883
C/2018 F1 (Grauer),e,46.0738,177.2776,71.6381,306.8131,0.0001834,0.99024384,0.0000,12/14.0528/2018,2000,g 11.5,4.0
# From MPC110084
C/2018 F3 (Johnson),p,08/15.2314/2017,105.5348,293.0113,2.483172,173.0311,2000,13.0,4.0
# From MPC118841
C/2018 F4 (PANSTARRS),h,12/04.0979/2019,78.0983,26.5075,263.2131,1.001473,3.439817,2000,11.9,2.0
# From MPC114602
P/2018 H2 (PANSTARRS),e,7.3884,68.4431,120.0554,4.398210,0.1068538,0.53984739,74.7930,12/24.0/2019,2000,g 16.6,2.0
# From MPC114602
C/2018 K1 (Weiland),e,164.1960,260.0122,324.9874,29.82981,0.0060496,0.93700256,3.7885,12/24.0/2019,2000,g 14.9,4.0
# From MPC118094
C/2018 KJ3 (Lemmon),e,136.7092,91.5943,217.6264,748.6312,0.0000481,0.99515295,0.0000,09/09.5058/2019,2000,g 12.2,2.0
# From MPC114602
P/2018 L1 (PANSTARRS),e,10.5947,268.6265,17.9245,3.648746,0.1414128,0.48305322,57.4727,12/24.0/2019,2000,g 15.0,4.0
# From MPC118841
C/2018 L2 (ATLAS),e,67.4189,243.0209,56.2480,250.3895,0.0002488,0.99316264,0.0000,12/02.6180/2018,2000,g 10.0,4.0
# From MPC114603
P/2018 L4 (PANSTARRS),e,26.6233,145.1778,140.4875,4.937076,0.0898461,0.66032980,45.8309,12/24.0/2019,2000,g 17.5,4.0
# From MPC114603
P/2018 L5 (Leonard),e,2.2088,219.1562,93.7039,3.626945,0.1426897,0.36482251,85.3663,12/24.0/2019,2000,g 14.5,4.0
# From MPC117070
C/2018 M1 (Catalina),e,37.2679,339.4402,14.1415,21.29384,0.0100305,0.93880875,5.3355,12/24.0/2019,2000,g 15.5,4.0
# From MPC112393
C/2018 N1 (NEOWISE),e,159.4447,292.4451,354.5689,331.1609,0.0001635,0.99605094,0.0000,08/01.9317/2018,2000,g 15.5,4.0
# From MPC118841
C/2018 N2 (ASASSN),h,11/10.9627/2019,77.5310,25.2587,24.3964,1.000166,3.124639,2000,6.0,4.0
# From MPC114603
C/2018 O1 (ATLAS),e,154.0427,87.6236,162.5102,27.77134,0.0067346,0.94387840,3.2290,12/24.0/2019,2000,g 17.0,4.0
# From MPC114603
P/2018 P3 (PANSTARRS),e,8.9084,59.2050,305.8715,3.007054,0.1890132,0.41606521,83.2635,12/24.0/2019,2000,g 14.5,4.0
# From MPC114603
P/2018 P4 (PANSTARRS),e,23.1071,353.0981,8.1426,6.665043,0.0572796,0.44993881,23.5714,12/24.0/2019,2000,g 12.0,4.0
# From MPC118094
C/2018 P5 (PANSTARRS),e,7.2558,216.2452,131.6576,12.76632,0.0216075,0.64155072,6.4940,12/24.0/2019,2000,g 11.0,4.0
# From MPC118841
C/2018 R3 (Lemmon),e,69.7181,324.6257,112.8733,1947,0.0000115,0.99933717,0.0000,06/07.1963/2019,2000,g  9.5,4.0
# From MPC112393
C/2018 R4 (Fuls),e,11.6833,298.4418,345.2076,314.0746,0.0001771,0.99455322,0.0000,03/03.6774/2018,2000,g 14.0,4.0
# From MPC114603
C/2018 R5 (Lemmon),e,103.7502,171.1394,178.0259,22.82147,0.0090404,0.84130972,3.1458,12/24.0/2019,2000,g 11.5,4.0
# From MPC118842
C/2018 U1 (Lemmon),h,11/02.7559/2021,108.3017,75.4768,180.3996,1.000364,4.995078,2000,5.0,4.0
# From MPC114604
C/2018 V1 (Machholz-Fujikawa-Iwamoto),h,12/03.5299/2018,144.0465,128.8583,88.8432,1.000491,0.386150,2000,12.0,4.0
# From MPC115884
C/2018 V2 (ATLAS),e,159.1122,356.7976,318.6863,25.44768,0.0076777,0.90272180,3.0098,12/24.0/2019,2000,g 15.0,4.0
# From MPC114604
P/2018 VN2 (Leonard),e,18.2471,226.5452,138.7287,4.065318,0.1202437,0.47807666,68.1387,12/24.0/2019,2000,g 15.0,4.0
